{
  "type": "FeatureCollection",
  "features": [
    {
      "type": "Feature",
      "properties": {
        "norad_id": 66612,
        "name": "STARLINK-36039",
        "group": "last-30-days",
        "lat": 42.75285733698092,
        "lon": -83.08445579986557,
        "alt_km": 420.1576144098599,
        "timestamp": "2025-12-12T11:38:30.170271+00:00",
        "meta_object_name": "STARLINK-36039",
        "meta_object_id": "2025-270AA",
        "meta_epoch": "2025-12-12T04:00:01.998720",
        "meta_mean_motion": 15.48388273,
        "meta_eccentricity": 0.0001543,
        "meta_inclination": 42.9999,
        "meta_ra_of_asc_node": 195.978,
        "meta_arg_of_pericenter": 268.7997,
        "meta_mean_anomaly": 199.909,
        "meta_ephemeris_type": 0,
        "meta_classification_type": "U",
        "meta_norad_cat_id": 66612,
        "meta_element_set_no": 999,
        "meta_rev_at_epoch": 430,
        "meta_bstar": -0.042766,
        "meta_mean_motion_dot": -0.02064887,
        "meta_mean_motion_ddot": 0,
        "tle_line1": "1 66612U 25270AA  25346.16668980 -.02064887  00000+0 -42766-1 0  9993",
        "tle_line2": "2 66612  42.9999 195.9780 0001543 268.7997 199.9090 15.48388273  4308"
      },
      "geometry": {
        "type": "Point",
        "coordinates": [
          -83.08445579986557,
          42.75285733698092
        ]
      }
    },
    {
      "type": "Feature",
      "properties": {
        "norad_id": 66613,
        "name": "STARLINK-36037",
        "group": "last-30-days",
        "lat": 42.95649657459777,
        "lon": -73.59139963372468,
        "alt_km": 411.41865341930406,
        "timestamp": "2025-12-12T11:38:30.170284+00:00",
        "meta_object_name": "STARLINK-36037",
        "meta_object_id": "2025-270AB",
        "meta_epoch": "2025-12-12T04:00:01.998720",
        "meta_mean_motion": 15.51005623,
        "meta_eccentricity": 0.0001467,
        "meta_inclination": 43,
        "meta_ra_of_asc_node": 195.9688,
        "meta_arg_of_pericenter": 285.6804,
        "meta_mean_anomaly": 186.8004,
        "meta_ephemeris_type": 0,
        "meta_classification_type": "U",
        "meta_norad_cat_id": 66613,
        "meta_element_set_no": 999,
        "meta_rev_at_epoch": 430,
        "meta_bstar": -0.030606,
        "meta_mean_motion_dot": -0.01636054,
        "meta_mean_motion_ddot": 0,
        "tle_line1": "1 66613U 25270AB  25346.16668980 -.01636054  00000+0 -30606-1 0  9994",
        "tle_line2": "2 66613  43.0000 195.9688 0001467 285.6804 186.8004 15.51005623  4300"
      },
      "geometry": {
        "type": "Point",
        "coordinates": [
          -73.59139963372468,
          42.95649657459777
        ]
      }
    },
    {
      "type": "Feature",
      "properties": {
        "norad_id": 66614,
        "name": "STARLINK-36040",
        "group": "last-30-days",
        "lat": 42.712046729267605,
        "lon": -68.07921301868699,
        "alt_km": 409.64372284995807,
        "timestamp": "2025-12-12T11:38:30.170296+00:00",
        "meta_object_name": "STARLINK-36040",
        "meta_object_id": "2025-270AC",
        "meta_epoch": "2025-12-12T04:00:01.998720",
        "meta_mean_motion": 15.50550142,
        "meta_eccentricity": 0.0002049,
        "meta_inclination": 42.9997,
        "meta_ra_of_asc_node": 195.959,
        "meta_arg_of_pericenter": 279.1075,
        "meta_mean_anomaly": 197.2798,
        "meta_ephemeris_type": 0,
        "meta_classification_type": "U",
        "meta_norad_cat_id": 66614,
        "meta_element_set_no": 999,
        "meta_rev_at_epoch": 415,
        "meta_bstar": 0.00062884,
        "meta_mean_motion_dot": 0.00036685,
        "meta_mean_motion_ddot": 0,
        "tle_line1": "1 66614U 25270AC  25346.16668980  .00036685  00000+0  62884-3 0  9991",
        "tle_line2": "2 66614  42.9997 195.9590 0002049 279.1075 197.2798 15.50550142  4150"
      },
      "geometry": {
        "type": "Point",
        "coordinates": [
          -68.07921301868699,
          42.712046729267605
        ]
      }
    },
    {
      "type": "Feature",
      "properties": {
        "norad_id": 66615,
        "name": "STARLINK-35988",
        "group": "last-30-days",
        "lat": 42.86195403907538,
        "lon": -70.71027299511245,
        "alt_km": 409.4269523303901,
        "timestamp": "2025-12-12T11:38:30.170307+00:00",
        "meta_object_name": "STARLINK-35988",
        "meta_object_id": "2025-270AD",
        "meta_epoch": "2025-12-12T04:00:01.998720",
        "meta_mean_motion": 15.50497456,
        "meta_eccentricity": 0.0001781,
        "meta_inclination": 42.9997,
        "meta_ra_of_asc_node": 195.9641,
        "meta_arg_of_pericenter": 261.1706,
        "meta_mean_anomaly": 213.3171,
        "meta_ephemeris_type": 0,
        "meta_classification_type": "U",
        "meta_norad_cat_id": 66615,
        "meta_element_set_no": 999,
        "meta_rev_at_epoch": 415,
        "meta_bstar": 0.0019538,
        "meta_mean_motion_dot": 0.00115649,
        "meta_mean_motion_ddot": 0,
        "tle_line1": "1 66615U 25270AD  25346.16668980  .00115649  00000+0  19538-2 0  9997",
        "tle_line2": "2 66615  42.9997 195.9641 0001781 261.1706 213.3171 15.50497456  4155"
      },
      "geometry": {
        "type": "Point",
        "coordinates": [
          -70.71027299511245,
          42.86195403907538
        ]
      }
    },
    {
      "type": "Feature",
      "properties": {
        "norad_id": 66616,
        "name": "STARLINK-35391",
        "group": "last-30-days",
        "lat": 42.504569738695444,
        "lon": -65.48947320192971,
        "alt_km": 409.66609387519384,
        "timestamp": "2025-12-12T11:38:30.170316+00:00",
        "meta_object_name": "STARLINK-35391",
        "meta_object_id": "2025-270AE",
        "meta_epoch": "2025-12-12T04:00:01.998720",
        "meta_mean_motion": 15.50551574,
        "meta_eccentricity": 0.0002024,
        "meta_inclination": 42.9998,
        "meta_ra_of_asc_node": 195.9545,
        "meta_arg_of_pericenter": 276.6332,
        "meta_mean_anomaly": 201.6732,
        "meta_ephemeris_type": 0,
        "meta_classification_type": "U",
        "meta_norad_cat_id": 66616,
        "meta_element_set_no": 999,
        "meta_rev_at_epoch": 441,
        "meta_bstar": 0.00057868,
        "meta_mean_motion_dot": 0.00033721,
        "meta_mean_motion_ddot": 0,
        "tle_line1": "1 66616U 25270AE  25346.16668980  .00033721  00000+0  57868-3 0  9997",
        "tle_line2": "2 66616  42.9998 195.9545 0002024 276.6332 201.6732 15.50551574  4411"
      },
      "geometry": {
        "type": "Point",
        "coordinates": [
          -65.48947320192971,
          42.504569738695444
        ]
      }
    },
    {
      "type": "Feature",
      "properties": {
        "norad_id": 66617,
        "name": "STARLINK-35940",
        "group": "last-30-days",
        "lat": 50.1705877420052,
        "lon": -55.565150508413,
        "alt_km": 406.7875107298696,
        "timestamp": "2025-12-12T11:38:30.170328+00:00",
        "meta_object_name": "STARLINK-35940",
        "meta_object_id": "2025-271A",
        "meta_epoch": "2025-12-12T04:00:01.998720",
        "meta_mean_motion": 15.52250855,
        "meta_eccentricity": 8.72e-05,
        "meta_inclination": 53.1593,
        "meta_ra_of_asc_node": 189.9803,
        "meta_arg_of_pericenter": 81.059,
        "meta_mean_anomaly": 45.8177,
        "meta_ephemeris_type": 0,
        "meta_classification_type": "U",
        "meta_norad_cat_id": 66617,
        "meta_element_set_no": 999,
        "meta_rev_at_epoch": 415,
        "meta_bstar": -0.034857,
        "meta_mean_motion_dot": -0.01932234,
        "meta_mean_motion_ddot": 0,
        "tle_line1": "1 66617U 25271A   25346.16668980 -.01932234  00000+0 -34857-1 0  9990",
        "tle_line2": "2 66617  53.1593 189.9803 0000872  81.0590  45.8177 15.52250855  4152"
      },
      "geometry": {
        "type": "Point",
        "coordinates": [
          -55.565150508413,
          50.1705877420052
        ]
      }
    },
    {
      "type": "Feature",
      "properties": {
        "norad_id": 66618,
        "name": "STARLINK-35970",
        "group": "last-30-days",
        "lat": 16.121898590008314,
        "lon": -4.177137482765958,
        "alt_km": 412.63470117268844,
        "timestamp": "2025-12-12T11:38:30.170339+00:00",
        "meta_object_name": "STARLINK-35970",
        "meta_object_id": "2025-271B",
        "meta_epoch": "2025-12-12T04:00:01.998720",
        "meta_mean_motion": 15.52250506,
        "meta_eccentricity": 0.0001238,
        "meta_inclination": 53.1591,
        "meta_ra_of_asc_node": 189.8669,
        "meta_arg_of_pericenter": 69.8476,
        "meta_mean_anomaly": 110.3505,
        "meta_ephemeris_type": 0,
        "meta_classification_type": "U",
        "meta_norad_cat_id": 66618,
        "meta_element_set_no": 999,
        "meta_rev_at_epoch": 415,
        "meta_bstar": -0.034929,
        "meta_mean_motion_dot": -0.01935969,
        "meta_mean_motion_ddot": 0,
        "tle_line1": "1 66618U 25271B   25346.16668980 -.01935969  00000+0 -34929-1 0  9999",
        "tle_line2": "2 66618  53.1591 189.8669 0001238  69.8476 110.3505 15.52250506  4150"
      },
      "geometry": {
        "type": "Point",
        "coordinates": [
          -4.177137482765958,
          16.121898590008314
        ]
      }
    }
  ]
}